NORAD_CAT_ID,OBJECT_NAME,OBJECT_TYPE,EPOCH,MEAN_MOTION,ECCENTRICITY,INCLINATION,RA_OF_ASC_NODE,ARG_OF_PERICENTER,MEAN_ANOMALY,BSTAR,MEAN_MOTION_DOT,MEAN_MOTION_DDOT,TLE_LINE0,TLE_LINE1,TLE_LINE2,SEMIMAJOR_AXIS,PERIOD,APOGEE,PERIGEE,DECAYED
52601.0,STARLINK-4027,PAYLOAD,2023-02-23 19:32:47,15.08847765,0.0001123,53.2153,221.5431,91.3946,268.7175,0.00026625,3.953e-05,0.0,0 STARLINK-4027,1 52601U 22052D   23054.81444107  .00003953  00000-0  26625-3 0  9992,2 52601  53.2153 221.5431 0001123  91.3946 268.7175 15.08847765 44108,6917.857,95.437,540.499,538.945,0.0
52601.0,STARLINK-4027,PAYLOAD,2023-02-23 22:43:33,15.08850409,0.0001189,53.2158,220.9487,94.3018,265.811,0.00037943,5.758e-05,0.0,0 STARLINK-4027,1 52601U 22052D   23054.94692063  .00005758  00000-0  37943-3 0  9992,2 52601  53.2158 220.9487 0001189  94.3018 265.8110 15.08850409 43691,6917.849,95.437,540.536,538.891,0.0
52601.0,STARLINK-4027,PAYLOAD,2023-02-24 03:29:43,15.08841052,0.0001365,53.2155,220.0555,75.02,285.0944,0.00021283,3.101e-05,0.0,0 STARLINK-4027,1 52601U 22052D   23055.14564494  .00003101  00000-0  21283-3 0  9991,2 52601  53.2155 220.0555 0001365  75.0200 285.0944 15.08841052 43727,6917.877,95.437,540.686,538.798,0.0
52601.0,STARLINK-4027,PAYLOAD,2023-02-24 13:02:02,15.08834863,0.0001139,53.2165,218.2732,88.3043,271.808,1.5605e-05,-3.9e-07,0.0,0 STARLINK-4027,1 52601U 22052D   23055.54308680 -.00000039  00000-0  15605-4 0  9998,2 52601  53.2165 218.2732 0001139  88.3043 271.8080 15.08834863 44216,6917.896,95.438,540.549,538.973,0.0
52601.0,STARLINK-4027,PAYLOAD,2023-02-24 20:58:58,15.08840261,0.0001202,53.2162,216.7867,89.8108,270.3022,9.9259e-05,1.292e-05,0.0,0 STARLINK-4027,1 52601U 22052D   23055.87428520  .00001292  00000-0  99259-4 0  9998,2 52601  53.2162 216.7867 0001202  89.8108 270.3022 15.08840261 44268,6917.88,95.438,540.576,538.913,0.0
52601.0,STARLINK-4027,PAYLOAD,2023-02-25 03:20:31,15.08834504,0.0001098,53.2159,215.597,85.2603,274.8514,-6.4944e-06,-3.91e-06,0.0,0 STARLINK-4027,1 52601U 22052D   23056.13924891 -.00000391  00000-0 -64944-5 0  9995,2 52601  53.2159 215.5970 0001098  85.2603 274.8514 15.08834504 43873,6917.897,95.438,540.522,539.003,0.0
52601.0,STARLINK-4027,PAYLOAD,2023-02-25 12:52:50,15.08834945,9.55e-05,53.2155,213.8112,88.3134,271.7967,1.2472e-05,-8.9e-07,0.0,0 STARLINK-4027,1 52601U 22052D   23056.53669000 -.00000089  00000-0  12472-4 0  9998,2 52601  53.2155 213.8112 0000955  88.3134 271.7967 15.08834945 44364,6917.896,95.438,540.421,539.1,0.0
52601.0,STARLINK-4027,PAYLOAD,2023-02-25 20:49:45,15.08847376,0.0001084,53.2159,212.326,86.2379,273.8737,0.00021311,3.106e-05,0.0,0 STARLINK-4027,1 52601U 22052D   23056.86788562  .00003106  00000-0  21311-3 0  9992,2 52601  53.2159 212.3260 0001084  86.2379 273.8737 15.08847376 44414,6917.858,95.437,540.473,538.973,0.0
52601.0,STARLINK-4027,PAYLOAD,2023-02-26 03:11:18,15.08841266,0.0001019,53.2155,211.1351,88.6559,271.455,0.0001432,1.992e-05,0.0,0 STARLINK-4027,1 52601U 22052D   23057.13284805  .00001992  00000-0  14320-3 0  9997,2 52601  53.2155 211.1351 0001019  88.6559 271.4550 15.08841266 44028,6917.877,95.437,540.446,539.037,0.0
52601.0,STARLINK-4027,PAYLOAD,2023-02-26 12:43:36,15.08849134,0.0001004,53.2153,209.3509,85.1378,274.9729,0.00034501,5.209e-05,0.0,0 STARLINK-4027,1 52601U 22052D   23057.53028597  .00005209  00000-0  34501-3 0  9993,2 52601  53.2153 209.3509 0001004  85.1378 274.9729 15.08849134 44517,6917.852,95.437,540.412,539.023,0.0
52601.0,STARLINK-4027,PAYLOAD,2023-02-26 17:29:45,15.08863246,0.0001074,53.2152,208.4595,86.0144,274.0971,0.00078706,0.00012268,0.0,0 STARLINK-4027,1 52601U 22052D   23057.72900233  .00012268  00000-0  78706-3 0  9998,2 52601  53.2152 208.4595 0001074  86.0144 274.0971 15.08863246 44115,6917.809,95.436,540.417,538.931,0.0
52601.0,STARLINK-4027,PAYLOAD,2023-02-26 20:40:31,15.08868387,0.0001038,53.2149,207.8646,84.7104,275.4006,0.00095975,0.00015031,0.0,0 STARLINK-4027,1 52601U 22052D   23057.86147993  .00015031  00000-0  95975-3 0  9997,2 52601  53.2149 207.8646 0001038  84.7104 275.4006 15.08868387 44566,6917.794,95.436,540.377,538.941,0.0
52601.0,STARLINK-4027,PAYLOAD,2023-02-27 09:23:37,15.08842729,9.64e-05,53.2149,205.4866,75.9316,284.1783,5.5777e-05,6e-06,0.0,0 STARLINK-4027,1 52601U 22052D   23058.39140413  .00000600  00000-0  55777-4 0  9999,2 52601  53.2149 205.4866 0000964  75.9316 284.1783 15.08842729 44211,6917.872,95.437,540.404,539.07,0.0
52601.0,STARLINK-4027,PAYLOAD,2023-02-27 15:45:09,15.08894053,0.0001094,53.2141,204.2965,107.0282,253.083,0.0047701,0.00076567,0.0,0 STARLINK-4027,1 52601U 22052D   23058.65636010  .00076567  00000-0  47701-2 0  9992,2 52601  53.2141 204.2965 0001094 107.0282 253.0830 15.08894053 44253,6917.715,95.434,540.337,538.823,0.0
52601.0,STARLINK-4027,PAYLOAD,2023-02-27 20:31:18,15.08877782,0.0001149,53.2143,203.4038,99.7271,260.3851,0.002608,0.00041506,0.0,0 STARLINK-4027,1 52601U 22052D   23058.85507737  .00041506  00000-0  26080-2 0  9999,2 52601  53.2143 203.4038 0001149  99.7271 260.3851 15.08877782 44718,6917.765,95.435,540.425,538.835,0.0
52601.0,STARLINK-4027,PAYLOAD,2023-02-28 02:52:51,15.0883431,4.89e-05,53.2143,202.2145,292.9046,67.1895,-1.4176e-05,-5.13e-06,0.0,0 STARLINK-4027,1 52601U 22052D   23059.12004046 -.00000513  00000-0 -14176-4 0  9995,2 52601  53.2143 202.2145 0000489 292.9046  67.1895 15.08834310 44325,6917.898,95.438,540.101,539.424,0.0
52601.0,STARLINK-4027,PAYLOAD,2023-02-28 14:00:34,15.08823585,0.0001163,53.214,200.1331,68.6386,291.473,0.0013431,0.00021142,0.0,0 STARLINK-4027,1 52601U 22052D   23059.58373507  .00021142  00000-0  13431-2 0  9996,2 52601  53.2140 200.1331 0001163  68.6386 291.4730 15.08823585 44828,6917.931,95.439,540.6,538.991,0.0
52601.0,STARLINK-4027,PAYLOAD,2023-02-28 20:22:07,15.08830266,0.0001168,53.214,198.9436,64.4358,295.6754,0.0018631,0.0002948,0.0,0 STARLINK-4027,1 52601U 22052D   23059.84869800  .00029480  00000-0  18631-2 0  9991,2 52601  53.2140 198.9436 0001168  64.4358 295.6754 15.08830266 44866,6917.91,95.438,540.583,538.967,0.0
52601.0,STARLINK-4027,PAYLOAD,2023-03-01 02:43:40,15.08822994,0.0002062,53.2138,197.7546,60.969,299.1508,0.00090079,0.00014071,0.0,0 STARLINK-4027,1 52601U 22052D   23060.11366487  .00014071  00000-0  90079-3 0  9993,2 52601  53.2138 197.7546 0002062  60.9690 299.1508 15.08822994 44478,6917.932,95.439,541.224,538.371,0.0
52601.0,STARLINK-4027,PAYLOAD,2023-03-01 20:12:55,15.08851027,0.0001817,53.2135,194.4825,65.8123,294.3059,0.0010546,0.00016541,0.0,0 STARLINK-4027,1 52601U 22052D   23060.84230336  .00016541  00000-0  10546-2 0  9990,2 52601  53.2135 194.4825 0001817  65.8123 294.3059 15.08851027 45019,6917.847,95.437,540.969,538.455,0.0
52601.0,STARLINK-4027,PAYLOAD,2023-03-02 18:28:18,15.08872269,0.0001605,53.2157,190.3208,70.7795,289.3371,0.0012799,0.00020158,0.0,0 STARLINK-4027,1 52601U 22052D   23061.76965482  .00020158  00000-0  12799-2 0  9990,2 52601  53.2157 190.3208 0001605  70.7795 289.3371 15.08872269 45155,6917.782,95.436,540.757,538.536,0.0
52601.0,STARLINK-4027,PAYLOAD,2023-03-03 08:46:46,15.08867236,0.0001219,53.215,187.6429,73.3972,286.7154,0.001114,0.00017499,0.0,0 STARLINK-4027,1 52601U 22052D   23062.36581118  .00017499  00000-0  11140-2 0  9990,2 52601  53.2150 187.6429 0001219  73.3972 286.7154 15.08867236 44819,6917.797,95.436,540.505,538.819,0.0
52601.0,STARLINK-4027,PAYLOAD,2023-03-03 19:54:26,15.08910128,0.0001194,53.2158,185.5612,87.5327,272.5802,0.0024222,0.00038547,0.0,0 STARLINK-4027,1 52601U 22052D   23062.82947582  .00038547  00000-0  24222-2 0  9994,2 52601  53.2158 185.5612 0001194  87.5327 272.5802 15.08910128 44880,6917.666,95.433,540.357,538.705,0.0
52601.0,STARLINK-4027,PAYLOAD,2023-03-04 00:40:36,15.08831592,0.0001587,53.2167,184.6704,157.112,202.9943,-0.002915,-0.00046371,0.0,0 STARLINK-4027,1 52601U 22052D   23063.02819498 -.00046371  00000-0 -29150-2 0  9992,2 52601  53.2167 184.6704 0001587 157.1120 202.9943 15.08831592 44917,6917.906,95.438,540.869,538.673,0.0
52601.0,STARLINK-4027,PAYLOAD,2023-03-04 11:48:20,15.08806301,0.0001223,53.216,182.5895,112.4849,247.6273,0.0015091,0.00023789,0.0,0 STARLINK-4027,1 52601U 22052D   23063.49190145  .00023789  00000-0  15091-2 0  9999,2 52601  53.2160 182.5895 0001223 112.4849 247.6273 15.08806301 45415,6917.983,95.44,540.694,539.002,0.0
52601.0,STARLINK-4027,PAYLOAD,2023-03-04 18:09:53,15.08796834,0.000147,53.2163,181.4007,108.2295,251.8857,0.0017039,0.00026902,0.0,0 STARLINK-4027,1 52601U 22052D   23063.75687111  .00026902  00000-0  17039-2 0  9996,2 52601  53.2163 181.4007 0001470 108.2295 251.8857 15.08796834 45024,6918.012,95.44,540.894,538.86,0.0
52601.0,STARLINK-4027,PAYLOAD,2023-03-05 08:28:21,15.08870373,0.0001186,53.215,178.7231,108.4635,251.6486,0.0030443,0.00048536,0.0,0 STARLINK-4027,1 52601U 22052D   23064.35302847  .00048536  00000-0  30443-2 0  9994,2 52601  53.2150 178.7231 0001186 108.4635 251.6486 15.08870373 45119,6917.788,95.436,540.473,538.832,0.0
52601.0,STARLINK-4027,PAYLOAD,2023-03-06 00:22:10,15.08923379,6.43e-05,53.2153,175.7482,11.4071,348.6936,0.0029102,0.00046439,0.0,0 STARLINK-4027,1 52601U 22052D   23065.01540501  .00046439  00000-0  29102-2 0  9999,2 52601  53.2153 175.7482 0000643  11.4071 348.6936 15.08923379 45214,6917.626,95.432,539.935,539.046,0.0
52601.0,STARLINK-4027,PAYLOAD,2023-03-06 11:29:53,15.08858475,0.0001352,53.215,173.6683,72.6688,287.4452,0.0031643,0.00050458,0.0,0 STARLINK-4027,1 52601U 22052D   23065.47908824  .00050458  00000-0  31643-2 0  9994,2 52601  53.2150 173.6683 0001352  72.6688 287.4452 15.08858475 45286,6917.824,95.436,540.624,538.754,0.0
52601.0,STARLINK-4027,PAYLOAD,2023-03-06 19:26:48,15.08900421,0.0001445,53.2149,172.1806,68.2347,291.8799,0.0035182,0.00056244,0.0,0 STARLINK-4027,1 52601U 22052D   23065.81027922  .00056244  00000-0  35182-2 0  9994,2 52601  53.2149 172.1806 0001445  68.2347 291.8799 15.08900421 45766,6917.696,95.434,540.56,538.561,0.0
